<?xml version="1.0" encoding="UTF-8"?>
<ndm xmlns:xsi="http://www.w3.org/2001/XMLSchema-instance" xsi:noNamespaceSchemaLocation="https://sanaregistry.org/r/ndmxml_unqualified/ndmxml-2.0.0-master-2.0.xsd">
<omm id="CCSDS_OMM_VERS" version="2.0">
<header><CREATION_DATE/><ORIGINATOR/></header><body><segment><metadata><OBJECT_NAME>2022-098D</OBJECT_NAME><OBJECT_ID>2022-098D</OBJECT_ID><CENTER_NAME>EARTH</CENTER_NAME><REF_FRAME>TEME</REF_FRAME><TIME_SYSTEM>UTC</TIME_SYSTEM><MEAN_ELEMENT_THEORY>SGP4</MEAN_ELEMENT_THEORY></metadata><data><meanElements><EPOCH>2022-08-29T13:33:51.636672</EPOCH><MEAN_MOTION>15.09072158</MEAN_MOTION><ECCENTRICITY>.0010906</ECCENTRICITY><INCLINATION>97.5267</INCLINATION><RA_OF_ASC_NODE>337.5453</RA_OF_ASC_NODE><ARG_OF_PERICENTER>188.0215</ARG_OF_PERICENTER><MEAN_ANOMALY>297.6332</MEAN_ANOMALY></meanElements><tleParameters><EPHEMERIS_TYPE>0</EPHEMERIS_TYPE><CLASSIFICATION_TYPE>U</CLASSIFICATION_TYPE><NORAD_CAT_ID>53447</NORAD_CAT_ID><ELEMENT_SET_NO>999</ELEMENT_SET_NO><REV_AT_EPOCH>290</REV_AT_EPOCH><BSTAR>.11776E-3</BSTAR><MEAN_MOTION_DOT>.1804E-4</MEAN_MOTION_DOT><MEAN_MOTION_DDOT>0</MEAN_MOTION_DDOT></tleParameters></data></segment></body></omm>
<omm id="CCSDS_OMM_VERS" version="2.0">
<header><CREATION_DATE/><ORIGINATOR/></header><body><segment><metadata><OBJECT_NAME>2022-098E</OBJECT_NAME><OBJECT_ID>2022-098E</OBJECT_ID><CENTER_NAME>EARTH</CENTER_NAME><REF_FRAME>TEME</REF_FRAME><TIME_SYSTEM>UTC</TIME_SYSTEM><MEAN_ELEMENT_THEORY>SGP4</MEAN_ELEMENT_THEORY></metadata><data><meanElements><EPOCH>2022-08-29T13:30:41.827104</EPOCH><MEAN_MOTION>15.09255765</MEAN_MOTION><ECCENTRICITY>.0011444</ECCENTRICITY><INCLINATION>97.5340</INCLINATION><RA_OF_ASC_NODE>337.5681</RA_OF_ASC_NODE><ARG_OF_PERICENTER>194.2110</ARG_OF_PERICENTER><MEAN_ANOMALY>292.2584</MEAN_ANOMALY></meanElements><tleParameters><EPHEMERIS_TYPE>0</EPHEMERIS_TYPE><CLASSIFICATION_TYPE>U</CLASSIFICATION_TYPE><NORAD_CAT_ID>53448</NORAD_CAT_ID><ELEMENT_SET_NO>999</ELEMENT_SET_NO><REV_AT_EPOCH>290</REV_AT_EPOCH><BSTAR>.1223E-3</BSTAR><MEAN_MOTION_DOT>.1886E-4</MEAN_MOTION_DOT><MEAN_MOTION_DDOT>0</MEAN_MOTION_DDOT></tleParameters></data></segment></body></omm>
<omm id="CCSDS_OMM_VERS" version="2.0">
<header><CREATION_DATE/><ORIGINATOR/></header><body><segment><metadata><OBJECT_NAME>2022-098F</OBJECT_NAME><OBJECT_ID>2022-098F</OBJECT_ID><CENTER_NAME>EARTH</CENTER_NAME><REF_FRAME>TEME</REF_FRAME><TIME_SYSTEM>UTC</TIME_SYSTEM><MEAN_ELEMENT_THEORY>SGP4</MEAN_ELEMENT_THEORY></metadata><data><meanElements><EPOCH>2022-08-29T13:28:56.210016</EPOCH><MEAN_MOTION>15.09345156</MEAN_MOTION><ECCENTRICITY>.0011055</ECCENTRICITY><INCLINATION>97.5293</INCLINATION><RA_OF_ASC_NODE>337.5549</RA_OF_ASC_NODE><ARG_OF_PERICENTER>195.3281</ARG_OF_PERICENTER><MEAN_ANOMALY>290.6492</MEAN_ANOMALY></meanElements><tleParameters><EPHEMERIS_TYPE>0</EPHEMERIS_TYPE><CLASSIFICATION_TYPE>U</CLASSIFICATION_TYPE><NORAD_CAT_ID>53449</NORAD_CAT_ID><ELEMENT_SET_NO>999</ELEMENT_SET_NO><REV_AT_EPOCH>290</REV_AT_EPOCH><BSTAR>.12628E-3</BSTAR><MEAN_MOTION_DOT>.1954E-4</MEAN_MOTION_DOT><MEAN_MOTION_DDOT>0</MEAN_MOTION_DDOT></tleParameters></data></segment></body></omm>
<omm id="CCSDS_OMM_VERS" version="2.0">
<header><CREATION_DATE/><ORIGINATOR/></header><body><segment><metadata><OBJECT_NAME>2022-098G</OBJECT_NAME><OBJECT_ID>2022-098G</OBJECT_ID><CENTER_NAME>EARTH</CENTER_NAME><REF_FRAME>TEME</REF_FRAME><TIME_SYSTEM>UTC</TIME_SYSTEM><MEAN_ELEMENT_THEORY>SGP4</MEAN_ELEMENT_THEORY></metadata><data><meanElements><EPOCH>2022-08-29T13:25:08.036256</EPOCH><MEAN_MOTION>15.09547187</MEAN_MOTION><ECCENTRICITY>.0008423</ECCENTRICITY><INCLINATION>97.5340</INCLINATION><RA_OF_ASC_NODE>337.5726</RA_OF_ASC_NODE><ARG_OF_PERICENTER>193.6287</ARG_OF_PERICENTER><MEAN_ANOMALY>291.9921</MEAN_ANOMALY></meanElements><tleParameters><EPHEMERIS_TYPE>0</EPHEMERIS_TYPE><CLASSIFICATION_TYPE>U</CLASSIFICATION_TYPE><NORAD_CAT_ID>53450</NORAD_CAT_ID><ELEMENT_SET_NO>999</ELEMENT_SET_NO><REV_AT_EPOCH>290</REV_AT_EPOCH><BSTAR>.13058E-3</BSTAR><MEAN_MOTION_DOT>.2033E-4</MEAN_MOTION_DOT><MEAN_MOTION_DDOT>0</MEAN_MOTION_DDOT></tleParameters></data></segment></body></omm>
<omm id="CCSDS_OMM_VERS" version="2.0">
<header><CREATION_DATE/><ORIGINATOR/></header><body><segment><metadata><OBJECT_NAME>2022-098H</OBJECT_NAME><OBJECT_ID>2022-098H</OBJECT_ID><CENTER_NAME>EARTH</CENTER_NAME><REF_FRAME>TEME</REF_FRAME><TIME_SYSTEM>UTC</TIME_SYSTEM><MEAN_ELEMENT_THEORY>SGP4</MEAN_ELEMENT_THEORY></metadata><data><meanElements><EPOCH>2022-08-29T13:23:42.745632</EPOCH><MEAN_MOTION>15.09625389</MEAN_MOTION><ECCENTRICITY>.000907</ECCENTRICITY><INCLINATION>97.5385</INCLINATION><RA_OF_ASC_NODE>337.5862</RA_OF_ASC_NODE><ARG_OF_PERICENTER>197.7955</ARG_OF_PERICENTER><MEAN_ANOMALY>287.9060</MEAN_ANOMALY></meanElements><tleParameters><EPHEMERIS_TYPE>0</EPHEMERIS_TYPE><CLASSIFICATION_TYPE>U</CLASSIFICATION_TYPE><NORAD_CAT_ID>53451</NORAD_CAT_ID><ELEMENT_SET_NO>999</ELEMENT_SET_NO><REV_AT_EPOCH>290</REV_AT_EPOCH><BSTAR>.1303E-3</BSTAR><MEAN_MOTION_DOT>.2033E-4</MEAN_MOTION_DOT><MEAN_MOTION_DDOT>0</MEAN_MOTION_DDOT></tleParameters></data></segment></body></omm>
<omm id="CCSDS_OMM_VERS" version="2.0">
<header><CREATION_DATE/><ORIGINATOR/></header><body><segment><metadata><OBJECT_NAME>2022-098J</OBJECT_NAME><OBJECT_ID>2022-098J</OBJECT_ID><CENTER_NAME>EARTH</CENTER_NAME><REF_FRAME>TEME</REF_FRAME><TIME_SYSTEM>UTC</TIME_SYSTEM><MEAN_ELEMENT_THEORY>SGP4</MEAN_ELEMENT_THEORY></metadata><data><meanElements><EPOCH>2022-08-29T13:22:00.347808</EPOCH><MEAN_MOTION>15.09719797</MEAN_MOTION><ECCENTRICITY>.0009122</ECCENTRICITY><INCLINATION>97.5289</INCLINATION><RA_OF_ASC_NODE>337.5613</RA_OF_ASC_NODE><ARG_OF_PERICENTER>199.6368</ARG_OF_PERICENTER><MEAN_ANOMALY>286.0857</MEAN_ANOMALY></meanElements><tleParameters><EPHEMERIS_TYPE>0</EPHEMERIS_TYPE><CLASSIFICATION_TYPE>U</CLASSIFICATION_TYPE><NORAD_CAT_ID>53452</NORAD_CAT_ID><ELEMENT_SET_NO>999</ELEMENT_SET_NO><REV_AT_EPOCH>290</REV_AT_EPOCH><BSTAR>.13529E-3</BSTAR><MEAN_MOTION_DOT>.2119E-4</MEAN_MOTION_DOT><MEAN_MOTION_DDOT>0</MEAN_MOTION_DDOT></tleParameters></data></segment></body></omm>
<omm id="CCSDS_OMM_VERS" version="2.0">
<header><CREATION_DATE/><ORIGINATOR/></header><body><segment><metadata><OBJECT_NAME>2022-098K</OBJECT_NAME><OBJECT_ID>2022-098K</OBJECT_ID><CENTER_NAME>EARTH</CENTER_NAME><REF_FRAME>TEME</REF_FRAME><TIME_SYSTEM>UTC</TIME_SYSTEM><MEAN_ELEMENT_THEORY>SGP4</MEAN_ELEMENT_THEORY></metadata><data><meanElements><EPOCH>2022-08-29T13:20:31.937280</EPOCH><MEAN_MOTION>15.09801783</MEAN_MOTION><ECCENTRICITY>.0009723</ECCENTRICITY><INCLINATION>97.5338</INCLINATION><RA_OF_ASC_NODE>337.5762</RA_OF_ASC_NODE><ARG_OF_PERICENTER>203.0896</ARG_OF_PERICENTER><MEAN_ANOMALY>282.7771</MEAN_ANOMALY></meanElements><tleParameters><EPHEMERIS_TYPE>0</EPHEMERIS_TYPE><CLASSIFICATION_TYPE>U</CLASSIFICATION_TYPE><NORAD_CAT_ID>53453</NORAD_CAT_ID><ELEMENT_SET_NO>999</ELEMENT_SET_NO><REV_AT_EPOCH>290</REV_AT_EPOCH><BSTAR>.13643E-3</BSTAR><MEAN_MOTION_DOT>.2143E-4</MEAN_MOTION_DOT><MEAN_MOTION_DDOT>0</MEAN_MOTION_DDOT></tleParameters></data></segment></body></omm>
<omm id="CCSDS_OMM_VERS" version="2.0">
<header><CREATION_DATE/><ORIGINATOR/></header><body><segment><metadata><OBJECT_NAME>2022-098L</OBJECT_NAME><OBJECT_ID>2022-098L</OBJECT_ID><CENTER_NAME>EARTH</CENTER_NAME><REF_FRAME>TEME</REF_FRAME><TIME_SYSTEM>UTC</TIME_SYSTEM><MEAN_ELEMENT_THEORY>SGP4</MEAN_ELEMENT_THEORY></metadata><data><meanElements><EPOCH>2022-08-29T13:17:07.141632</EPOCH><MEAN_MOTION>15.10017019</MEAN_MOTION><ECCENTRICITY>.0011556</ECCENTRICITY><INCLINATION>97.5288</INCLINATION><RA_OF_ASC_NODE>337.5646</RA_OF_ASC_NODE><ARG_OF_PERICENTER>210.2202</ARG_OF_PERICENTER><MEAN_ANOMALY>275.8739</MEAN_ANOMALY></meanElements><tleParameters><EPHEMERIS_TYPE>0</EPHEMERIS_TYPE><CLASSIFICATION_TYPE>U</CLASSIFICATION_TYPE><NORAD_CAT_ID>53454</NORAD_CAT_ID><ELEMENT_SET_NO>999</ELEMENT_SET_NO><REV_AT_EPOCH>290</REV_AT_EPOCH><BSTAR>.20414E-3</BSTAR><MEAN_MOTION_DOT>.3259E-4</MEAN_MOTION_DOT><MEAN_MOTION_DDOT>0</MEAN_MOTION_DDOT></tleParameters></data></segment></body></omm>

</ndm>
